IRIDIUM 144             
1 43249U 18030A   24298.73295782  .00000130  00000+0  39212-4 0  9996
2 43249  86.4029 181.3798 0002169  80.5515 279.5926 14.34213454344071
IRIDIUM 149             
1 43250U 18030B   24298.73929797  .00000743  00000+0  25809-3 0  9994
2 43250  86.4029 181.3512 0002038  77.6785 282.4639 14.34220166344092
IRIDIUM 157             
1 43251U 18030C   24298.75833740  .00000748  00000+0  25998-3 0  9993
2 43251  86.4031 181.3831 0001848  79.4166 280.7238 14.34223565344071
IRIDIUM 140             
1 43252U 18030D   24298.77734590  .00000404  00000+0  13735-3 0  9994
2 43252  86.4033 181.3893 0002266  85.4849 274.6605 14.34222221344137
IRIDIUM 145             
1 43253U 18030E   24298.76466922  .00000657  00000+0  22750-3 0  9992
2 43253  86.4032 181.3679 0002561  79.4329 280.7155 14.34219470344065
IRIDIUM 146             
1 43254U 18030F   24298.39678981  .00000633  00000+0  21884-3 0  9993
2 43254  86.4030 181.5358 0002426  79.3327 280.8142 14.34225724344029
IRIDIUM 148             
1 43255U 18030G   24298.71392598  .00000735  00000+0  25548-3 0  9991
2 43255  86.4032 181.4373 0002081  76.8715 283.2713 14.34221223344108
IRIDIUM 142             
1 43256U 18030H   24298.75199237  .00000747  00000+0  25975-3 0  9998
2 43256  86.4028 181.3325 0002372  73.4634 286.6822 14.34223907344071
